{"format":"tle-catalog-v1","generatedAt":"2026-07-01T14:19:31.438Z","count":19018,"entries":[{"name":"CZ-12B R/B","line1":"1 69327U 26121C   26182.19787306  .00000568  00000+0  29770-3 0  9995","line2":"2 69327  89.0332 298.9271 0193717 322.3736  36.4021 14.04092109  4196"},{"name":"QIANFAN-163","line1":"1 69325U 26121A   26171.83152253  .00000035  00000+0  30105-4 0  9993","line2":"2 69325  89.0159 300.1473 0020476 178.2353 181.8879 13.59758614  2659"},{"name":"QIANFAN-164","line1":"1 69326U 26121B   26181.33753742  .00000132  00000+0  16633-3 0  9997","line2":"2 69326  89.0179 299.1939 0021210 151.1195 209.1139 13.57846346  3941"},{"name":"STARLINK-37549","line1":"1 69351U 26122Y   26182.04742571  .00079717  00000+0  14502-2 0  9990","line2":"2 69351  97.2818 211.7831 0001655 107.3569 252.7863 15.49235487  4311"},{"name":"STARLINK-37651","line1":"1 69353U 26123A   26181.51140785  .00250807  00000+0  12304-2 0  9992","line2":"2 69353  53.1561 175.0288 0002940 168.1568 191.9524 15.80998863  4147"},{"name":"STARLINK-37652","line1":"1 69354U 26123B   26182.20796662  .00448494  00000+0  21540-2 0  9994","line2":"2 69354  53.1567 171.5527 0000957  96.1602 263.9530 15.80931306  4254"},{"name":"STARLINK-37733","line1":"1 69329U 26122A   26182.16670139 -.03970296  00000+0 -12835+0 0  9999","line2":"2 69329  97.2839 211.8754 0001979  81.0891 159.1010 15.36625854  5591"},{"name":"STARLINK-37743","line1":"1 69339U 26122L   26181.00941590  .00050231  00000+0  91719-3 0  9999","line2":"2 69339  97.2850 210.7434 0000977  99.1717 260.9645 15.49256981  4153"},{"name":"STARLINK-37744","line1":"1 69347U 26122U   26182.13482134  .00060465  00000+0  11050-2 0  9996","line2":"2 69347  97.2825 211.8192 0000314 162.4242 197.7021 15.49186490  4320"},{"name":"STARLINK-37765","line1":"1 69337U 26122J   26182.03583045  .00035677  00000+0  11012-2 0  9992","line2":"2 69337  97.2843 211.8003 0000898   4.4321 355.6929 15.33474763  4317"},{"name":"STARLINK-37768","line1":"1 69331U 26122C   26182.06896797  .00074506  00000+0  13576-2 0  9991","line2":"2 69331  97.2843 211.7546 0001135  68.6955 291.4417 15.49212468  4310"},{"name":"STARLINK-37772","line1":"1 69330U 26122B   26182.16670139 -.00027963  00000+0 -86675-3 0  9999","line2":"2 69330  97.2836 211.8830 0001306  82.3021 174.8331 15.33454637  5549"},{"name":"STARLINK-37773","line1":"1 69346U 26122T   26182.16670139 -.02491698  00000+0 -58672-1 0  9992","line2":"2 69346  97.2835 211.9630 0001259  95.2162 336.7137 15.45513242  5645"},{"name":"STARLINK-37775","line1":"1 69348U 26122V   26182.16670139 -.02831414  00000+0 -69215-1 0  9993","line2":"2 69348  97.2838 211.9564 0002280  61.8124  11.4477 15.44932185  5596"},{"name":"STARLINK-37776","line1":"1 69343U 26122Q   26182.16670139 -.00301709  00000+0 -86508-2 0  9990","line2":"2 69343  97.2837 211.9600 0001328  23.2799  59.2265 15.37098873  5597"},{"name":"STARLINK-37777","line1":"1 69349U 26122W   26182.02231714  .00081295  00000+0  14758-2 0  9994","line2":"2 69349  97.2835 211.8173 0002049  99.3070 260.8413 15.49288814  4315"},{"name":"STARLINK-37778","line1":"1 69352U 26122Z   26182.03947234  .00061137  00000+0  11150-2 0  9996","line2":"2 69352  97.2828 211.7948 0000746   3.1773 356.9483 15.49241076  4318"},{"name":"STARLINK-37779","line1":"1 69350U 26122X   26180.97373035  .00035770  00000+0  65573-3 0  9990","line2":"2 69350  97.2847 210.7935 0001112  80.3369 279.8008 15.49217403  4153"},{"name":"STARLINK-37780","line1":"1 69340U 26122M   26180.60227812  .00057799  00000+0  10560-2 0  9990","line2":"2 69340  97.2848 210.3789 0001802  72.0229 288.1219 15.49205677  4095"},{"name":"STARLINK-37781","line1":"1 69341U 26122N   26182.07429602  .00068395  00000+0  12472-2 0  9993","line2":"2 69341  97.2835 211.7458 0000625 350.7321   9.3919 15.49214562  4319"},{"name":"STARLINK-37782","line1":"1 69342U 26122P   26182.16670139 -.00024667  00000+0 -76411-3 0  9997","line2":"2 69342  97.2842 211.9609 0001668  74.2025   2.9189 15.33448826  5599"},{"name":"STARLINK-37785","line1":"1 69345U 26122S   26182.16670139 -.02084366  00000+0 -64775-1 0  9992","line2":"2 69345  97.2846 211.9847 0001548  65.3906  51.9584 15.37150348  5592"},{"name":"STARLINK-37786","line1":"1 69344U 26122R   26182.03663970  .00090818  00000+0  16484-2 0  9992","line2":"2 69344  97.2838 211.7981 0000908 109.0872 251.0477 15.49257637  4311"},{"name":"STARLINK-37788","line1":"1 69338U 26122K   26182.00839275  .00076940  00000+0  13898-2 0  9991","line2":"2 69338  97.2886 211.6836 0010210 229.9757 130.0599 15.49397028  4305"},{"name":"STARLINK-37791","line1":"1 69336U 26122H   26180.61688397 -.00555053  00000+0 -11205-1 0  9999","line2":"2 69336  97.2842 210.3596 0001745 179.3157 180.8096 15.48507639  4090"},{"name":"STARLINK-37818","line1":"1 69333U 26122E   26182.16670139  .00005919  00000+0  16625-3 0  9995","line2":"2 69333  97.2837 211.8823 0000676 109.2448 150.0897 15.36912131  5595"},{"name":"STARLINK-37833","line1":"1 69332U 26122D   26182.16670139 -.01112546  00000+0 -36828-1 0  9997","line2":"2 69332  97.2842 211.8978 0001873  65.5580 221.2495 15.34165800  5543"},{"name":"STARLINK-37868","line1":"1 69334U 26122F   26182.16670139 -.00018675  00000+0 -57780-3 0  9998","line2":"2 69334  97.2844 211.9061 0001835  96.3239 220.7880 15.33430909  5593"},{"name":"STARLINK-37877","line1":"1 69335U 26122G   26182.07120291  .00058805  00000+0  10772-2 0  9994","line2":"2 69335  97.2857 211.7501 0001684   4.0729 356.0535 15.49125259  4312"},{"name":"SZ-22 MODULE","line1":"1 69328U 25272C   26181.55181904  .00017597  00000+0  20907-3 0  9996","line2":"2 69328  41.4787 240.8328 0007639 195.1355 164.9256 15.60720318  5418"}]}