OBJECT_NAME,OBJECT_ID,EPOCH,MEAN_MOTION,ECCENTRICITY,INCLINATION,RA_OF_ASC_NODE,ARG_OF_PERICENTER,MEAN_ANOMALY,EPHEMERIS_TYPE,CLASSIFICATION_TYPE,NORAD_CAT_ID,ELEMENT_SET_NO,REV_AT_EPOCH,BSTAR,MEAN_MOTION_DOT,MEAN_MOTION_DDOT
QIANFAN-163,2026-121A,2026-06-20T19:57:23.546592,13.59758614,.00204763,89.0159,300.1473,178.2353,181.8879,0,U,69325,999,265,.30105417E-4,.35E-6,0
QIANFAN-164,2026-121B,2026-06-30T08:06:03.233088,13.57846346,.00212108,89.0179,299.1939,151.1195,209.1139,0,U,69326,999,394,.16632596E-3,.132E-5,0
CZ-12B R/B,2026-121C,2026-07-01T04:44:56.232384,14.04092109,.0193717,89.0332,298.9271,322.3736,36.4021,0,U,69327,999,419,.2977E-3,.568E-5,0
SZ-22 MODULE,2025-272C,2026-06-30T13:14:37.165056,15.60720318,.00076397,41.4787,240.8328,195.1355,164.9256,0,U,69328,999,541,.20907399E-3,.17597E-3,0
STARLINK-37733,2026-122A,2026-07-01T04:00:03.000096,15.36625854,.0001979,97.2839,211.8754,81.0891,159.1010,0,U,69329,999,559,-.12835E+0,-.3970296E-1,0
STARLINK-37772,2026-122B,2026-07-01T04:00:03.000096,15.33454637,.0001306,97.2836,211.8830,82.3021,174.8331,0,U,69330,999,554,-.86675E-3,-.27963E-3,0
STARLINK-37768,2026-122C,2026-07-01T01:39:18.832608,15.49212468,.0001135,97.2843,211.7546,68.6955,291.4417,0,U,69331,999,431,.13576E-2,.74506E-3,0
STARLINK-37833,2026-122D,2026-07-01T04:00:03.000096,15.34165800,.0001873,97.2842,211.8978,65.5580,221.2495,0,U,69332,999,554,-.36828E-1,-.1112546E-1,0
STARLINK-37818,2026-122E,2026-07-01T04:00:03.000096,15.36912131,.0000676,97.2837,211.8823,109.2448,150.0897,0,U,69333,999,559,.16625E-3,.5919E-4,0
STARLINK-37868,2026-122F,2026-07-01T04:00:03.000096,15.33430909,.0001835,97.2844,211.9061,96.3239,220.7880,0,U,69334,999,559,-.5778E-3,-.18675E-3,0
STARLINK-37877,2026-122G,2026-07-01T01:42:31.931424,15.49125259,.0001684,97.2857,211.7501,4.0729,356.0535,0,U,69335,999,431,.10772E-2,.58805E-3,0
STARLINK-37791,2026-122H,2026-06-29T14:48:18.775008,15.48507639,.00017451,97.2842,210.3596,179.3157,180.8096,0,U,69336,999,409,-.11204873E-1,-.555053E-2,0
STARLINK-37765,2026-122J,2026-07-01T00:51:35.750880,15.33474763,.0000898,97.2843,211.8003,4.4321,355.6929,0,U,69337,999,431,.11012E-2,.35677E-3,0
STARLINK-37788,2026-122K,2026-07-01T00:12:05.133600,15.49397028,.001021,97.2886,211.6836,229.9757,130.0599,0,U,69338,999,430,.13898E-2,.7694E-3,0
STARLINK-37743,2026-122L,2026-06-30T00:13:33.533760,15.49256981,.00009773,97.2850,210.7434,99.1717,260.9645,0,U,69339,999,415,.91718737E-3,.50231E-3,0
STARLINK-37780,2026-122M,2026-06-29T14:27:16.829568,15.49205677,.00018024,97.2848,210.3789,72.0229,288.1219,0,U,69340,999,409,.1055976E-2,.57799E-3,0
STARLINK-37781,2026-122N,2026-07-01T01:46:59.176128,15.49214562,.0000625,97.2835,211.7458,350.7321,9.3919,0,U,69341,999,431,.12472E-2,.68395E-3,0
STARLINK-37782,2026-122P,2026-07-01T04:00:03.000096,15.33448826,.0001668,97.2842,211.9609,74.2025,2.9189,0,U,69342,999,559,-.76411E-3,-.24667E-3,0
STARLINK-37776,2026-122Q,2026-07-01T04:00:03.000096,15.37098873,.0001328,97.2837,211.9600,23.2799,59.2265,0,U,69343,999,559,-.86508E-2,-.301709E-2,0
STARLINK-37786,2026-122R,2026-07-01T00:52:45.670080,15.49257637,.0000908,97.2838,211.7981,109.0872,251.0477,0,U,69344,999,431,.16484E-2,.90818E-3,0
STARLINK-37785,2026-122S,2026-07-01T04:00:03.000096,15.37150348,.0001548,97.2846,211.9847,65.3906,51.9584,0,U,69345,999,559,-.64775E-1,-.2084366E-1,0
STARLINK-37773,2026-122T,2026-07-01T04:00:03.000096,15.45513242,.0001259,97.2835,211.9630,95.2162,336.7137,0,U,69346,999,564,-.58672E-1,-.2491698E-1,0
STARLINK-37744,2026-122U,2026-07-01T03:14:08.563776,15.49186490,.0000314,97.2825,211.8192,162.4242,197.7021,0,U,69347,999,432,.1105E-2,.60465E-3,0
STARLINK-37775,2026-122V,2026-07-01T04:00:03.000096,15.44932185,.000228,97.2838,211.9564,61.8124,11.4477,0,U,69348,999,559,-.69215E-1,-.2831414E-1,0
STARLINK-37777,2026-122W,2026-07-01T00:32:08.200896,15.49288814,.0002049,97.2835,211.8173,99.3070,260.8413,0,U,69349,999,431,.14758E-2,.81295E-3,0
STARLINK-37779,2026-122X,2026-06-29T23:22:10.302240,15.49217403,.00011123,97.2847,210.7935,80.3369,279.8008,0,U,69350,999,415,.65573234E-3,.3577E-3,0
STARLINK-37549,2026-122Y,2026-07-01T01:08:17.581344,15.49235487,.0001655,97.2818,211.7831,107.3569,252.7863,0,U,69351,999,431,.14502E-2,.79717E-3,0
STARLINK-37778,2026-122Z,2026-07-01T00:56:50.410176,15.49241076,.0000746,97.2828,211.7948,3.1773,356.9483,0,U,69352,999,431,.1115E-2,.61137E-3,0
STARLINK-37651,2026-123A,2026-06-30T12:16:25.638240,15.80998863,.000294,53.1561,175.0288,168.1568,191.9524,0,U,69353,999,414,.12304E-2,.250807E-2,0
STARLINK-37652,2026-123B,2026-07-01T04:59:28.315968,15.80931306,.0000957,53.1567,171.5527,96.1602,263.9530,0,U,69354,999,425,.2154E-2,.448494E-2,0
